TRITON-1                
1 39427U 13066M   26182.81472052  .00000922  00000+0  11595-3 0  9995
2 39427  97.8242  92.2890 0089433 185.6689 174.3520 14.81749837676259
GOMX-1                  
1 39430U 13066Q   26182.89380536  .00001568  00000+0  24016-3 0  9991
2 39430  97.6470  22.4282 0129430  30.8177 330.0546 14.69508337672078
CUBEBUG-2 (LO-74)       
1 39440U 13066AA  26182.79953232  .00005278  00000+0  48671-3 0  9995
2 39440  97.8913 131.8405 0056768 340.7514  19.1560 14.93882399679175
NEE-02 KRYSAOR          
1 39441U 13066AB  26182.81465481  .00002680  00000+0  29597-3 0  9993
2 39441  97.8896 121.9256 0066666  23.1658 337.2539 14.86686631678373
FUNCUBE-1 (AO-73)       
1 39444U 13066AE  26182.90457851  .00007784  00000+0  47967-3 0  9999
2 39444  97.8285 154.6596 0037244 150.9783 209.3527 15.09668727681884
UWE-3                   
1 39446U 13066AG  26182.85315259  .00003431  00000+0  29591-3 0  9998
2 39446  97.8710 139.0279 0047128 271.0445  88.5377 14.97133222679774
SMDC ONE 2.4            
1 39469U 13072H   26182.88640045  .00014786  00000+0  54764-3 0  9992
2 39469 120.4919  48.8476 0147034  34.5668 326.4865 15.18490104120063
COSMOS 2488 (RODNIK-S 7)
1 39483U 13076A   26182.92954625  .00000110  00000+0  71915-3 0  9992
2 39483  82.4834 159.5101 0020846  64.9710 295.3531 12.42906393567721
COSMOS 2489 (RODNIK-S 8)
1 39484U 13076B   26182.98555606  .00000110  00000+0  72327-3 0  9993
2 39484  82.4869 160.8587 0022676  64.6846 295.6579 12.42880126567789
COSMOS 2490 (RODNIK-S 9)
1 39485U 13076C   26182.95746686  .00000098  00000+0  63165-3 0  9996
2 39485  82.4818 158.9373 0022905  79.5277 280.8382 12.42879072567712
KAZEOSAT 1              
1 39731U 14024A   26182.93936049  .00000082  00000+0  37848-4 0  9999
2 39731  98.3207 255.0196 0001164  78.4529 281.6792 14.42085211640686
COSMOS 2496 (RODNIK-S *)
1 39761U 14028A   26182.99546419 -.00000058  00000+0 -49313-3 0  9994
2 39761  82.4463  99.4577 0021240  48.3786 311.9109 12.42878554549357
COSMOS 2497 (RODNIK-S *)
1 39762U 14028B   26182.89006012  .00000044  00000+0  24437-3 0  9997
2 39762  82.4511 101.2191 0021768  43.7583 316.5217 12.42894614549340
COSMOS 2498 (RODNIK-S *)
1 39763U 14028C   26182.94713626 -.00000049  00000+0 -42299-3 0  9993
2 39763  82.4472  99.6641 0022469  43.2295 317.0544 12.42980073549389
HODOYOSHI-4             
1 40011U 14033B   26182.96122209  .00000914  00000+0  10451-3 0  9994
2 40011  97.5449   7.0708 0021964 256.4036 103.4735 14.88161087651005
UNISAT-6                
1 40012U 14033C   26182.92451053  .00002707  00000+0  29326-3 0  9996
2 40012  97.7895 335.3782 0045287  21.6735 338.6385 14.88317530648357
DEIMOS-2                
1 40013U 14033D   26182.92040236  .00001491  00000+0  14589-3 0  9998
2 40013  97.5807  56.8908 0000815  67.5560 292.5747 14.93762476639929
BUGSAT-1 (TITA)         
1 40014U 14033E   26182.95659538  .00005870  00000+0  30853-3 0  9990
2 40014  98.0436 276.3708 0028898 128.8896 231.4919 15.15749206658076
SAUDISAT 4              
1 40016U 14033G   26182.92961980  .00000640  00000+0  90861-4 0  9992
2 40016  97.7601 328.5557 0045352  27.1350 333.2218 14.79563159648252
APRIZESAT 9             
1 40018U 14033J   26182.93624507  .00000850  00000+0  13179-3 0  9995
2 40018  97.9080 315.7756 0066815 151.8652 208.6193 14.74236590645731
BRITE-CA1 (TORONTO)     
1 40020U 14033L   26182.91758358  .00001039  00000+0  16349-3 0  9990
2 40020  97.9758 311.5755 0077570 229.0817 130.3657 14.72701096644382
