OBJECT_NAME,OBJECT_ID,EPOCH,MEAN_MOTION,ECCENTRICITY,INCLINATION,RA_OF_ASC_NODE,ARG_OF_PERICENTER,MEAN_ANOMALY,EPHEMERIS_TYPE,CLASSIFICATION_TYPE,NORAD_CAT_ID,ELEMENT_SET_NO,REV_AT_EPOCH,BSTAR,MEAN_MOTION_DOT,MEAN_MOTION_DDOT
TRITON-1,2013-066M,2026-07-01T19:33:11.852928,14.81749837,.00894333,97.8242,92.2890,185.6689,174.3520,0,U,39427,999,67625,.11595395E-3,.922E-5,0
GOMX-1,2013-066Q,2026-07-01T21:27:04.783104,14.69508337,.01294304,97.6470,22.4282,30.8177,330.0546,0,U,39430,999,67207,.24016048E-3,.1568E-4,0
CUBEBUG-2 (LO-74),2013-066AA,2026-07-01T19:11:19.592448,14.93882399,.00567683,97.8913,131.8405,340.7514,19.1560,0,U,39440,999,67917,.48671059E-3,.5278E-4,0
NEE-02 KRYSAOR,2013-066AB,2026-07-01T19:33:06.175584,14.86686631,.00666669,97.8896,121.9256,23.1658,337.2539,0,U,39441,999,67837,.29596781E-3,.268E-4,0
FUNCUBE-1 (AO-73),2013-066AE,2026-07-01T21:42:35.583264,15.09668727,.00372443,97.8285,154.6596,150.9783,209.3527,0,U,39444,999,68188,.47967094E-3,.7784E-4,0
UWE-3,2013-066AG,2026-07-01T20:28:32.383776,14.97133222,.00471281,97.8710,139.0279,271.0445,88.5377,0,U,39446,999,67977,.29591236E-3,.3431E-4,0
SMDC ONE 2.4,2013-072H,2026-07-01T21:16:24.998880,15.18490104,.01470349,120.4919,48.8476,34.5668,326.4865,0,U,39469,999,12006,.5476389E-3,.14786E-3,0
COSMOS 2488 (RODNIK-S 7),2013-076A,2026-07-01T22:18:32.796000,12.42906393,.00208466,82.4834,159.5101,64.9710,295.3531,0,U,39483,999,56772,.71914673E-3,.11E-5,0
COSMOS 2489 (RODNIK-S 8),2013-076B,2026-07-01T23:39:12.043584,12.42880126,.00226766,82.4869,160.8587,64.6846,295.6579,0,U,39484,999,56778,.72327479E-3,.11E-5,0
COSMOS 2490 (RODNIK-S 9),2013-076C,2026-07-01T22:58:45.136704,12.42879072,.00229051,82.4818,158.9373,79.5277,280.8382,0,U,39485,999,56771,.63164723E-3,.98E-6,0
KAZEOSAT 1,2014-024A,2026-07-01T22:32:40.746336,14.42085211,.00011647,98.3207,255.0196,78.4529,281.6792,0,U,39731,999,64068,.37848045E-4,.82E-6,0
COSMOS 2496 (RODNIK-S 10),2014-028A,2026-07-01T23:53:28.106016,12.42878554,.00212405,82.4463,99.4577,48.3786,311.9109,0,U,39761,999,54935,-.49312961E-3,-.58E-6,0
COSMOS 2497 (RODNIK-S 11),2014-028B,2026-07-01T21:21:41.194368,12.42894614,.00217681,82.4511,101.2191,43.7583,316.5217,0,U,39762,999,54934,.24436714E-3,.44E-6,0
COSMOS 2498 (RODNIK-S 12),2014-028C,2026-07-01T22:43:52.572864,12.42980073,.00224693,82.4472,99.6641,43.2295,317.0544,0,U,39763,999,54938,-.42298719E-3,-.49E-6,0
HODOYOSHI-4,2014-033B,2026-07-01T23:04:09.588576,14.88161087,.00219645,97.5449,7.0708,256.4036,103.4735,0,U,40011,999,65100,.10451373E-3,.914E-5,0
UNISAT-6,2014-033C,2026-07-01T22:11:17.709792,14.88317530,.00452874,97.7895,335.3782,21.6735,338.6385,0,U,40012,999,64835,.29326012E-3,.2707E-4,0
DEIMOS-2,2014-033D,2026-07-01T22:05:22.763904,14.93762476,.00008159,97.5807,56.8908,67.5560,292.5747,0,U,40013,999,63992,.14589168E-3,.1491E-4,0
BUGSAT-1 (TITA),2014-033E,2026-07-01T22:57:29.840832,15.15749206,.00288981,98.0436,276.3708,128.8896,231.4919,0,U,40014,999,65807,.30853026E-3,.587E-4,0
SAUDISAT 4,2014-033G,2026-07-01T22:18:39.150720,14.79563159,.00453529,97.7601,328.5557,27.1350,333.2218,0,U,40016,999,64825,.90860891E-4,.64E-5,0
APRIZESAT 9,2014-033J,2026-07-01T22:28:11.574048,14.74236590,.00668155,97.9080,315.7756,151.8652,208.6193,0,U,40018,999,64573,.13178766E-3,.85E-5,0
BRITE-CA1 (TORONTO),2014-033L,2026-07-01T22:01:19.221312,14.72701096,.00775703,97.9758,311.5755,229.0817,130.3657,0,U,40020,999,64438,.16349302E-3,.1039E-4,0
